{"type": "FeatureCollection", "features": [ {"type": "Feature", "properties": {"norad_id": 66588, "name": "STARLINK-36076", "group": "last-30-days", "lat": -0.5302524118557713, "lon": -175.99992306217686, "alt_km": 446.467868961593, "timestamp": "2025-12-14T03:55:51.548080+00:00", "meta": {"OBJECT_NAME": "STARLINK-36076", "OBJECT_ID": "2025-270A", "EPOCH": "2025-12-13T06:00:02.000160", "MEAN_MOTION": 15.41006601, "ECCENTRICITY": 0.00011954, "INCLINATION": 42.9999, "RA_OF_ASC_NODE": 189.8342, "ARG_OF_PERICENTER": 243.2394, "MEAN_ANOMALY": 82.5505, "EPHEMERIS_TYPE": 0, "CLASSIFICATION_TYPE": "U", "NORAD_CAT_ID": 66588, "ELEMENT_SET_NO": 999, "REV_AT_EPOCH": 448, "BSTAR": -0.01402835, "MEAN_MOTION_DOT": -0.00551405, "MEAN_MOTION_DDOT": 0}, "tle": {"line1": "1 66588U 25270A   25347.25002315 -.00551405  00000+0 -14028-1 0  9995", "line2": "2 66588  42.9999 189.8342 0001195 243.2394  82.5505 15.41006601  4480"}}, "geometry": {"type": "Point", "coordinates": [-175.99992306217686, -0.5302524118557713]}}, {"type": "Feature", "properties": {"norad_id": 66589, "name": "STARLINK-35447", "group": "last-30-days", "lat": 39.74001899963603, "lon": -112.45102492538146, "alt_km": 410.1129081947547, "timestamp": "2025-12-14T03:55:51.548090+00:00", "meta": {"OBJECT_NAME": "STARLINK-35447", "OBJECT_ID": "2025-270B", "EPOCH": "2025-12-13T06:00:02.000160", "MEAN_MOTION": 15.50629859, "ECCENTRICITY": 0.00017098, "INCLINATION": 43, "RA_OF_ASC_NODE": 189.7436, "ARG_OF_PERICENTER": 268.9631, "MEAN_ANOMALY": 94.0022, "EPHEMERIS_TYPE": 0, "CLASSIFICATION_TYPE": "U", "NORAD_CAT_ID": 66589, "ELEMENT_SET_NO": 999, "REV_AT_EPOCH": 459, "BSTAR": -0.0015750191, "MEAN_MOTION_DOT": -0.00091833, "MEAN_MOTION_DDOT": 0}, "tle": {"line1": "1 66589U 25270B   25347.25002315 -.00091833  00000+0 -15750-2 0  9994", "line2": "2 66589  43.0000 189.7436 0001709 268.9631  94.0022 15.50629859  4598"}}, "geometry": {"type": "Point", "coordinates": [-112.45102492538146, 39.74001899963603]}}, {"type": "Feature", "properties": {"norad_id": 66590, "name": "STARLINK-35429", "group": "last-30-days", "lat": 39.03480206246498, "lon": -115.12682465747874, "alt_km": 411.03785973926915, "timestamp": "2025-12-14T03:55:51.548100+00:00", "meta": {"OBJECT_NAME": "STARLINK-35429", "OBJECT_ID": "2025-270C", "EPOCH": "2025-12-13T06:00:02.000160", "MEAN_MOTION": 15.50697516, "ECCENTRICITY": 0.00018991, "INCLINATION": 42.9998, "RA_OF_ASC_NODE": 189.7488, "ARG_OF_PERICENTER": 265.6014, "MEAN_ANOMALY": 95.4383, "EPHEMERIS_TYPE": 0, "CLASSIFICATION_TYPE": "U", "NORAD_CAT_ID": 66590, "ELEMENT_SET_NO": 999, "REV_AT_EPOCH": 459, "BSTAR": -0.0043221995, "MEAN_MOTION_DOT": -0.00247128, "MEAN_MOTION_DDOT": 0}, "tle": {"line1": "1 66590U 25270C   25347.25002315 -.00247128  00000+0 -43222-2 0  9991", "line2": "2 66590  42.9998 189.7488 0001899 265.6014  95.4383 15.50697516  4590"}}, "geometry": {"type": "Point", "coordinates": [-115.12682465747874, 39.03480206246498]}}, {"type": "Feature", "properties": {"norad_id": 66591, "name": "STARLINK-36058", "group": "last-30-days", "lat": 40.232192407483616, "lon": -110.38752656377436, "alt_km": 411.9460403635776, "timestamp": "2025-12-14T03:55:51.548110+00:00", "meta": {"OBJECT_NAME": "STARLINK-36058", "OBJECT_ID": "2025-270D", "EPOCH": "2025-12-13T06:00:02.000160", "MEAN_MOTION": 15.50806972, "ECCENTRICITY": 0.0003393, "INCLINATION": 42.9997, "RA_OF_ASC_NODE": 189.7393, "ARG_OF_PERICENTER": 269.954, "MEAN_ANOMALY": 94.8289, "EPHEMERIS_TYPE": 0, "CLASSIFICATION_TYPE": "U", "NORAD_CAT_ID": 66591, "ELEMENT_SET_NO": 999, "REV_AT_EPOCH": 448, "BSTAR": -0.00583446, "MEAN_MOTION_DOT": -0.00331353, "MEAN_MOTION_DDOT": 0}, "tle": {"line1": "1 66591U 25270D   25347.25002315 -.00331353  00000+0 -58345-2 0  9998", "line2": "2 66591  42.9997 189.7393 0003393 269.9540  94.8289 15.50806972  4481"}}, "geometry": {"type": "Point", "coordinates": [-110.38752656377436, 40.232192407483616]}}, {"type": "Feature", "properties": {"norad_id": 66592, "name": "STARLINK-36066", "group": "last-30-days", "lat": 30.70684398988279, "lon": -135.95537958209664, "alt_km": 434.1833334065959, "timestamp": "2025-12-14T03:55:51.548119+00:00", "meta": {"OBJECT_NAME": "STARLINK-36066", "OBJECT_ID": "2025-270E", "EPOCH": "2025-12-13T06:00:02.000160", "MEAN_MOTION": 15.46786343, "ECCENTRICITY": 0.00015724, "INCLINATION": 42.9999, "RA_OF_ASC_NODE": 189.7482, "ARG_OF_PERICENTER": 262.7472, "MEAN_ANOMALY": 98.2296, "EPHEMERIS_TYPE": 0, "CLASSIFICATION_TYPE": "U", "NORAD_CAT_ID": 66592, "ELEMENT_SET_NO": 999, "REV_AT_EPOCH": 438, "BSTAR": -0.045826292, "MEAN_MOTION_DOT": -0.02088457, "MEAN_MOTION_DDOT": 0}, "tle": {"line1": "1 66592U 25270E   25347.25002315 -.02088457  00000+0 -45826-1 0  9994", "line2": "2 66592  42.9999 189.7482 0001572 262.7472  98.2296 15.46786343  4384"}}, "geometry": {"type": "Point", "coordinates": [-135.95537958209664, 30.70684398988279]}}, {"type": "Feature", "properties": {"norad_id": 66593, "name": "STARLINK-36031", "group": "last-30-days", "lat": 41.23944323474183, "lon": -105.43566685348563, "alt_km": 410.50203268670066, "timestamp": "2025-12-14T03:55:51.548129+00:00", "meta": {"OBJECT_NAME": "STARLINK-36031", "OBJECT_ID": "2025-270F", "EPOCH": "2025-12-13T06:00:02.000160", "MEAN_MOTION": 15.50665115, "ECCENTRICITY": 0.00018265, "INCLINATION": 43, "RA_OF_ASC_NODE": 189.7292, "ARG_OF_PERICENTER": 266.8816, "MEAN_ANOMALY": 101.8358, "EPHEMERIS_TYPE": 0, "CLASSIFICATION_TYPE": "U", "NORAD_CAT_ID": 66593, "ELEMENT_SET_NO": 999, "REV_AT_EPOCH": 448, "BSTAR": -0.0034094015, "MEAN_MOTION_DOT": -0.00196041, "MEAN_MOTION_DDOT": 0}, "tle": {"line1": "1 66593U 25270F   25347.25002315 -.00196041  00000+0 -34094-2 0  9998", "line2": "2 66593  43.0000 189.7292 0001826 266.8816 101.8358 15.50665115  4487"}}, "geometry": {"type": "Point", "coordinates": [-105.43566685348563, 41.23944323474183]}}, {"type": "Feature", "properties": {"norad_id": 66594, "name": "STARLINK-36032", "group": "last-30-days", "lat": 41.61278843151689, "lon": -103.21750465892572, "alt_km": 410.9155188534678, "timestamp": "2025-12-14T03:55:51.548142+00:00", "meta": {"OBJECT_NAME": "STARLINK-36032", "OBJECT_ID": "2025-270G", "EPOCH": "2025-12-13T06:00:02.000160", "MEAN_MOTION": 15.50756043, "ECCENTRICITY": 0.00016139, "INCLINATION": 43, "RA_OF_ASC_NODE": 189.725, "ARG_OF_PERICENTER": 272.5431, "MEAN_ANOMALY": 98.0754, "EPHEMERIS_TYPE": 0, "CLASSIFICATION_TYPE": "U", "NORAD_CAT_ID": 66594, "ELEMENT_SET_NO": 999, "REV_AT_EPOCH": 422, "BSTAR": -0.0062266205, "MEAN_MOTION_DOT": -0.00351919, "MEAN_MOTION_DDOT": 0}, "tle": {"line1": "1 66594U 25270G   25347.25002315 -.00351919  00000+0 -62266-2 0  9998", "line2": "2 66594  43.0000 189.7250 0001613 272.5431  98.0754 15.50756043  4223"}}, "geometry": {"type": "Point", "coordinates": [-103.21750465892572, 41.61278843151689]}}, {"type": "Feature", "properties": {"norad_id": 66595, "name": "STARLINK-35711", "group": "last-30-days", "lat": 41.96792917439998, "lon": -100.79058654029394, "alt_km": 410.9518440679203, "timestamp": "2025-12-14T03:55:51.548156+00:00", "meta": {"OBJECT_NAME": "STARLINK-35711", "OBJECT_ID": "2025-270H", "EPOCH": "2025-12-13T06:00:02.000160", "MEAN_MOTION": 15.50791947, "ECCENTRICITY": 0.00013473, "INCLINATION": 42.9999, "RA_OF_ASC_NODE": 189.7201, "ARG_OF_PERICENTER": 261.9239, "MEAN_ANOMALY": 110.5942, "EPHEMERIS_TYPE": 0, "CLASSIFICATION_TYPE": "U", "NORAD_CAT_ID": 66595, "ELEMENT_SET_NO": 999, "REV_AT_EPOCH": 459, "BSTAR": -0.0071802916, "MEAN_MOTION_DOT": -0.00403633, "MEAN_MOTION_DDOT": 0}, "tle": {"line1": "1 66595U 25270H   25347.25002315 -.00403633  00000+0 -71803-2 0  9997", "line2": "2 66595  42.9999 189.7201 0001347 261.9239 110.5942 15.50791947  4598"}}, "geometry": {"type": "Point", "coordinates": [-100.79058654029394, 41.96792917439998]}}, {"type": "Feature", "properties": {"norad_id": 66596, "name": "STARLINK-35811", "group": "last-30-days", "lat": 15.558051023764575, "lon": -158.1051404935739, "alt_km": 448.193343804538, "timestamp": "2025-12-14T03:55:51.548166+00:00", "meta": {"OBJECT_NAME": "STARLINK-35811", "OBJECT_ID": "2025-270J", "EPOCH": "2025-12-13T06:00:02.000160", "MEAN_MOTION": 15.42699092, "ECCENTRICITY": 0.00015847, "INCLINATION": 42.9996, "RA_OF_ASC_NODE": 189.7759, "ARG_OF_PERICENTER": 269.081, "MEAN_ANOMALY": 80.1908, "EPHEMERIS_TYPE": 0, "CLASSIFICATION_TYPE": "U", "NORAD_CAT_ID": 66596, "ELEMENT_SET_NO": 999, "REV_AT_EPOCH": 459, "BSTAR": -0.053732896, "MEAN_MOTION_DOT": -0.02122453, "MEAN_MOTION_DDOT": 0}, "tle": {"line1": "1 66596U 25270J   25347.25002315 -.02122453  00000+0 -53733-1 0  9999", "line2": "2 66596  42.9996 189.7759 0001584 269.0810  80.1908 15.42699092  4594"}}, "geometry": {"type": "Point", "coordinates": [-158.1051404935739, 15.558051023764575]}}, {"type": "Feature", "properties": {"norad_id": 66597, "name": "STARLINK-35820", "group": "last-30-days", "lat": 39.488469464186636, "lon": -113.44036570445606, "alt_km": 427.4768568158497, "timestamp": "2025-12-14T03:55:51.548176+00:00", "meta": {"OBJECT_NAME": "STARLINK-35820", "OBJECT_ID": "2025-270K", "EPOCH": "2025-12-13T06:00:02.000160", "MEAN_MOTION": 15.48725359, "ECCENTRICITY": 0.00018623, "INCLINATION": 43, "RA_OF_ASC_NODE": 189.7129, "ARG_OF_PERICENTER": 272.0721, "MEAN_ANOMALY": 102.9049, "EPHEMERIS_TYPE": 0, "CLASSIFICATION_TYPE": "U", "NORAD_CAT_ID": 66597, "ELEMENT_SET_NO": 999, "REV_AT_EPOCH": 459, "BSTAR": -0.043201594, "MEAN_MOTION_DOT": -0.02105991, "MEAN_MOTION_DDOT": 0}, "tle": {"line1": "1 66597U 25270K   25347.25002315 -.02105991  00000+0 -43202-1 0  9998", "line2": "2 66597  43.0000 189.7129 0001862 272.0721 102.9049 15.48725359  4599"}}, "geometry": {"type": "Point", "coordinates": [-113.44036570445606, 39.488469464186636]}}]}